{"fetched_at":"2026-06-13T17:21:47Z","count":1672,"tles":[{"name":"HUANJING 1A (HJ-1A)","line1":"1 33320U 08041A   26163.85094352  .00001202  00000+0  15019-3 0  9991","line2":"2 33320  97.6677 149.8565 0019648 148.4052 211.8347 14.83976598957765","category":"Other"},{"name":"HUANJING 1B (HJ-1B)","line1":"1 33321U 08041B   26163.88550841  .00000731  00000+0  94658-4 0  9998","line2":"2 33321  97.6515 153.0746 0035615 195.1845 164.8304 14.83310437957771","category":"Other"},{"name":"RESURS-DK 1","line1":"1 29228U 06021A   26163.80473273  .00002531  00000+0  14826-3 0  9998","line2":"2 29228  69.9338 350.8971 0006750 295.1195  64.9270 15.13199413101913","category":"Other"},{"name":"COSMO-SKYMED 3","line1":"1 33412U 08054A   26163.89348720  .00004212  00000+0  28570-3 0  9992","line2":"2 33412  97.8286  22.3937 0014432 282.9833  76.9782 15.06924122956292","category":"Other"},{"name":"GOSAT (IBUKI)","line1":"1 33492U 09002A   26163.84288160  .00001060  00000+0  19545-3 0  9990","line2":"2 33492  98.0883 274.9784 0001559  87.0049 273.1334 14.67542171930821","category":"Other"},{"name":"YAOGAN-3","line1":"1 32289U 07055A   26163.83163745  .00002033  00000+0  21251-3 0  9997","line2":"2 32289  97.8158 193.7520 0001891  87.1006 273.0428 14.90763734  5221","category":"Other"},{"name":"LAPAN-TUBSAT","line1":"1 29709U 07001A   26163.87737249  .00000358  00000+0  47630-4 0  9999","line2":"2 29709  98.1339 163.0037 0011544 193.8817 166.2082 14.85944595 50514","category":"Other"},{"name":"WORLDVIEW-1 (WV-1)","line1":"1 32060U 07041A   26163.82798397  .00006108  00000+0  25339-3 0  9993","line2":"2 32060  97.3869 283.6345 0002671  33.8364 326.3044 15.24220409 42219","category":"Other"},{"name":"RADARSAT-2","line1":"1 32382U 07061A   26163.83955758  .00000107  00000+0  58275-4 0  9998","line2":"2 32382  98.5778 170.8338 0001314  83.5007 276.6325 14.29984298965339","category":"Other"},{"name":"COSMO-SKYMED 1","line1":"1 31598U 07023A   26163.85740170  .00002489  00000+0  22107-3 0  9995","line2":"2 31598  97.8844 355.6775 0001015  92.7928 267.3409 14.97079974 29144","category":"Other"},{"name":"COSMO-SKYMED 2","line1":"1 32376U 07059A   26163.84036829  .00000388  00000+0  55325-4 0  9992","line2":"2 32376  97.8885 347.5014 0001377  86.4201 273.7170 14.82151661  1363","category":"Other"},{"name":"TERRASAR-X","line1":"1 31698U 07026A   26160.28753291  .00000433  00000+0  23833-4 0  9996","line2":"2 31698  97.4448 168.1064 0001684  80.8129 279.3296 15.19149435 52027","category":"Other"},{"name":"TERRA","line1":"1 25994U 99068A   26163.85047542  .00000357  00000+0  81719-4 0  9998","line2":"2 25994  97.9457 213.5685 0001241 206.6950 269.0097 14.61099845408976","category":"Other"},{"name":"AQUA","line1":"1 27424U 02022A   26163.87818542  .00000730  00000+0  15492-3 0  9999","line2":"2 27424  98.4275 133.0750 0001273  52.9522 359.8353 14.62152120282645","category":"Other"},{"name":"AURA","line1":"1 28376U 04026A   26163.80934064  .00000747  00000+0  16102-3 0  9990","line2":"2 28376  98.3416 120.2264 0001264  72.9627 287.1711 14.61323184165576","category":"Other"},{"name":"DEIMOS-1","line1":"1 35681U 09041A   26163.84543818  .00000351  00000+0  58913-4 0  9994","line2":"2 35681  97.7394 321.2617 0001359 135.9172 224.2146 14.75232766906247","category":"Other"},{"name":"THEOS","line1":"1 33396U 08049A   26163.88242405 -.00000322  00000+0 -13131-3 0  9996","line2":"2 33396  98.5578 221.3058 0001266  80.1875 279.9445 14.20131107917358","category":"Other"},{"name":"HAIYANG-1B","line1":"1 31113U 07010A   26163.80975279  .00000083  00000+0  47194-4 0  9991","line2":"2 31113  98.3493 145.8247 0012749 209.9024 150.1432 14.31025907    16","category":"Other"}]}