OBJECT_NAME,OBJECT_ID,EPOCH,MEAN_MOTION,ECCENTRICITY,INCLINATION,RA_OF_ASC_NODE,ARG_OF_PERICENTER,MEAN_ANOMALY,EPHEMERIS_TYPE,CLASSIFICATION_TYPE,NORAD_CAT_ID,ELEMENT_SET_NO,REV_AT_EPOCH,BSTAR,MEAN_MOTION_DOT,MEAN_MOTION_DDOT
TERRA,1999-068A,2026-06-12T20:24:41.076288,14.61099845,.0001241,97.9457,213.5685,206.6950,269.0097,0,U,25994,999,40897,.81719E-4,.357E-5,0
AQUA,2002-022A,2026-06-12T21:04:35.220288,14.62152120,.0001273,98.4275,133.0750,52.9522,359.8353,0,U,27424,999,28264,.15492E-3,.73E-5,0
AURA,2004-026A,2026-06-12T19:25:27.031296,14.61323184,.0001264,98.3416,120.2264,72.9627,287.1711,0,U,28376,999,16557,.16102E-3,.747E-5,0
RESURS-DK 1,2006-021A,2026-06-12T19:18:48.907872,15.13199413,.000675,69.9338,350.8971,295.1195,64.9270,0,U,29228,999,10191,.14826E-3,.2531E-4,0
LAPAN-TUBSAT,2007-001A,2026-06-12T21:03:24.983136,14.85944595,.0011544,98.1339,163.0037,193.8817,166.2082,0,U,29709,999,5051,.4763E-4,.358E-5,0
HAIYANG-1B,2007-010A,2026-06-12T19:26:02.641056,14.31025907,.0012749,98.3493,145.8247,209.9024,150.1432,0,U,31113,999,1,.47194E-4,.83E-6,0
COSMO-SKYMED 1,2007-023A,2026-06-12T20:34:39.506880,14.97079974,.0001015,97.8844,355.6775,92.7928,267.3409,0,U,31598,999,2914,.22107E-3,.2489E-4,0
TERRASAR-X,2007-026A,2026-06-09T06:54:02.843424,15.19149435,.00016846,97.4448,168.1064,80.8129,279.3296,0,U,31698,999,5202,.23832718E-4,.433E-5,0
WORLDVIEW-1 (WV-1),2007-041A,2026-06-12T19:52:17.815008,15.24220409,.0002671,97.3869,283.6345,33.8364,326.3044,0,U,32060,999,4221,.25339E-3,.6108E-4,0
YAOGAN-3,2007-055A,2026-06-12T19:57:33.475680,14.90763734,.0001891,97.8158,193.7520,87.1006,273.0428,0,U,32289,999,522,.21251E-3,.2033E-4,0
COSMO-SKYMED 2,2007-059A,2026-06-12T20:10:07.820256,14.82151661,.0001377,97.8885,347.5014,86.4201,273.7170,0,U,32376,999,136,.55325E-4,.388E-5,0
RADARSAT-2,2007-061A,2026-06-12T20:08:57.774912,14.29984298,.0001314,98.5778,170.8338,83.5007,276.6325,0,U,32382,999,96533,.58275E-4,.107E-5,0
HUANJING 1A (HJ-1A),2008-041A,2026-06-12T20:25:21.520128,14.83976598,.0019648,97.6677,149.8565,148.4052,211.8347,0,U,33320,999,95776,.15019E-3,.1202E-4,0
HUANJING 1B (HJ-1B),2008-041B,2026-06-12T21:15:07.926624,14.83310437,.0035615,97.6515,153.0746,195.1845,164.8304,0,U,33321,999,95777,.94658E-4,.731E-5,0
THEOS,2008-049A,2026-06-12T21:10:41.437920,14.20131107,.0001266,98.5578,221.3058,80.1875,279.9445,0,U,33396,999,91735,-.13131E-3,-.322E-5,0
COSMO-SKYMED 3,2008-054A,2026-06-12T21:26:37.294080,15.06924122,.0014432,97.8286,22.3937,282.9833,76.9782,0,U,33412,999,95629,.2857E-3,.4212E-4,0
GOSAT (IBUKI),2009-002A,2026-06-12T20:13:44.970240,14.67542171,.0001559,98.0883,274.9784,87.0049,273.1334,0,U,33492,999,93082,.19545E-3,.106E-4,0
DEIMOS-1,2009-041A,2026-06-12T20:17:25.858752,14.75232766,.0001359,97.7394,321.2617,135.9172,224.2146,0,U,35681,999,90624,.58913E-4,.351E-5,0
